1 44739U 19074AC  22365.30498108  .00067301  00000-0  26625-2 0  9999
2 44739  52.9655   4.9043 0000872  26.8829 333.2212 15.24856200173317
1 44739U 19074AC  22365.30498108  .00067301  00000-0  26625-2 0  9999
2 44739  52.9655   4.9043 0000872  26.8829 333.2212 15.24856200173474
1 44739U 19074AC  22365.69823166  .00061921  00000-0  24491-2 0  9998
2 44739  52.9656   3.0849 0000892  32.9788 327.1263 15.24902736173376
1 44739U 19074AC  23001.28808157  .00069039  00000-0  27196-2 0  9997
2 44739  52.9654   0.3543 0000836  39.8647 320.2410 15.24987071173466
1 44739U 19074AC  23001.68129741  .00064880  00000-0  25541-2 0  9997
2 44739  52.9655 358.5346 0000863  45.5347 314.5720 15.25038454173527
1 44739U 19074AC  23001.68129741  .00064880  00000-0  25541-2 0  9997
2 44739  52.9655 358.5346 0000863  45.5347 314.5720 15.25038454173684
1 44739U 19074AC  23002.27109546  .00072105  00000-0  28272-2 0  9997
2 44739  52.9658 355.8039 0000817  54.2885 305.8187 15.25121715173615
1 44739U 19074AC  23002.66427864  .00056014  00000-0  22014-2 0  9995
2 44739  52.9655 353.9838 0000866  57.2283 302.8796 15.25161684173675
1 44739U 19074AC  23003.25402988  .00066737  00000-0  26104-2 0  9998
2 44739  52.9655 351.2529 0000839  67.4516 292.6569 15.25239554173929
1 44739U 19074AC  23003.38508288  .00066368  00000-0  25950-2 0  9990
2 44739  52.9653 350.6456 0000839  69.6085 290.5001 15.25254355173782
1 44739U 19074AC  23003.64718382  .00055194  00000-0  21621-2 0  9993
2 44739  52.9652 349.4321 0000884  69.0432 291.0658 15.25277524173987
1 44739U 19074AC  23004.23689054  .00075558  00000-0  29396-2 0  9995
2 44739  52.9654 346.7005 0000896  76.6118 283.4978 15.25358617173912
1 44739U 19074AC  23004.23689054  .00075558  00000-0  29396-2 0  9995
2 44739  52.9654 346.7005 0000896  76.6118 283.4978 15.25358617174070
1 44739U 19074AC  23004.63000792  .00091515  00000-0  35422-2 0  9993
2 44739  52.9655 344.8797 0000956  80.6727 279.4377 15.25431241173977
1 44739U 19074AC  23004.63000792  .00091515  00000-0  35422-2 0  9993
2 44739  52.9655 344.8797 0000956  80.6727 279.4377 15.25431241174136
1 44739U 19074AC  23005.28516219  .00059455  00000-0  23085-2 0  9990
2 44739  52.9657 341.8440 0000976  88.0051 272.1057 15.25539109174074
1 44739U 19074AC  23005.28516219  .00059455  00000-0  23085-2 0  9990
2 44739  52.9657 341.8440 0000976  88.0051 272.1057 15.25539109174232
1 44739U 19074AC  23006.26781102  .00083035  00000-0  31927-2 0  9999
2 44739  52.9657 337.2909 0001020  99.4465 260.6647 15.25703471174385
1 44739U 19074AC  23006.33331708  .00081322  00000-0  31267-2 0  9994
2 44739  52.9658 336.9873 0001034 100.5774 259.5339 15.25715391174237
1 44739U 19074AC  23007.18485969  .00073293  00000-0  28121-2 0  9990
2 44739  52.9660 333.0407 0001100 105.4415 254.6703 15.25836874174524
1 44739U 19074AC  23007.25035940  .00079582  00000-0  30481-2 0  9997
2 44739  52.9659 332.7371 0001126 108.4113 251.7006 15.25853895174373
1 44739U 19074AC  23007.31585910  .00077649  00000-0  29742-2 0  9991
2 44739  52.9660 332.4335 0001148 109.4498 250.6623 15.25864620174543
1 44739U 19074AC  23007.90533692  .00079937  00000-0  30523-2 0  9997
2 44739  52.9662 329.7016 0001167 110.0605 250.0517 15.25954155174470
1 44739U 19074AC  23008.29830322  .00071621  00000-0  27346-2 0  9991
2 44739  52.9668 327.8791 0001244 116.0453 244.0672 15.26010065174534
1 44739U 19074AC  23008.29830322  .00071621  00000-0  27346-2 0  9991
2 44739  52.9668 327.8791 0001244 116.0453 244.0672 15.26010065174691
1 44739U 19074AC  23008.88772546  .00081740  00000-0  31065-2 0  9995
2 44739  52.9668 325.1471 0001284 116.5589 243.5539 15.26098888174624
1 44739U 19074AC  23009.28065352  .00077218  00000-0  29317-2 0  9992
2 44739  52.9675 323.3243 0001350 122.7159 237.3968 15.26160940174687
1 44739U 19074AC  23009.28065352  .00077218  00000-0  29317-2 0  9992
2 44739  52.9675 323.3243 0001350 122.7159 237.3968 15.26160940174845
1 44739U 19074AC  23010.13194760  .00075100  00000-0  28421-2 0  9997
2 44739  52.9670 319.3770 0001469 126.1277 233.9856 15.26281522174972
1 44739U 19074AC  23010.26290936  .00072265  00000-0  27346-2 0  9997
2 44739  52.9672 318.7693 0001525 126.8901 233.2235 15.26302888174833
1 44739U 19074AC  23011.11411950  .00089566  00000-0  33639-2 0  9997
2 44739  52.9677 314.8214 0001635 129.9927 230.1213 15.26443833174960
1 44739U 19074AC  23011.11411950  .00089566  00000-0  33639-2 0  9997
2 44739  52.9677 314.8214 0001635 129.9927 230.1213 15.26443833175129
1 44739U 19074AC  23011.83431049  .00089291  00000-0  33411-2 0  9990
2 44739  52.9676 311.4809 0001688 132.4875 227.6265 15.26568668175076
1 44739U 19074AC  23012.09618401  .00082209  00000-0  30765-2 0  9999
2 44739  52.9677 310.2652 0001697 135.4004 224.7129 15.26607322175277
1 44739U 19074AC  23012.55444417  .00081132  00000-0  30298-2 0  9999
2 44739  52.9675 308.1390 0001730 135.8113 224.3022 15.26683759175189
1 44739U 19074AC  23013.53635385  .00080484  00000-0  29912-2 0  9994
2 44739  52.9677 303.5814 0001798 139.4490 220.6641 15.26846518175330
1 44739U 19074AC  23013.53635385  .00080484  00000-0  29912-2 0  9994
2 44739  52.9677 303.5814 0001798 139.4490 220.6641 15.26846518175497
1 44739U 19074AC  23014.51815191  .00088546  00000-0  32679-2 0  9999
2 44739  52.9680 299.0228 0001904 143.1113 217.0015 15.27028651175645
1 44739U 19074AC  23015.17262428  .00118166  00000-0  43239-2 0  9997
2 44739  52.9680 295.9832 0001937 146.5560 213.5560 15.27145948175588
1 44739U 19074AC  23015.17262428  .00118166  00000-0  43239-2 0  9997
2 44739  52.9680 295.9832 0001937 146.5560 213.5560 15.27145948175746
1 44739U 19074AC  23016.02335885  .00105571  00000-0  38521-2 0  9994
2 44739  52.9683 292.0317 0001928 150.4106 209.7001 15.27307324175874
1 44739U 19074AC  23016.48140766  .00105109  00000-0  38251-2 0  9993
2 44739  52.9685 289.9038 0002027 150.5856 209.5255 15.27397116175782
1 44739U 19074AC  23017.00486572  .00078610  00000-0  28682-2 0  9993
2 44739  52.9688 287.4717 0001974 153.1796 206.9303 15.27466436176029
1 44739U 19074AC  23017.46287175  .00066664  00000-0  24340-2 0  9994
2 44739  52.9688 285.3441 0002001 153.8017 206.3081 15.27523281175933
1 44739U 19074AC  23017.46287175  .00066664  00000-0  24340-2 0  9994
2 44739  52.9688 285.3441 0002001 153.8017 206.3081 15.27523281176091
1 44739U 19074AC  23018.11713820  .00057880  00000-0  21128-2 0  9999
2 44739  52.9688 282.3038 0001978 156.6218 203.4869 15.27596003176191
1 44739U 19074AC  23018.44425816  .00080620  00000-0  29244-2 0  9995
2 44739  52.9687 280.7844 0001910 157.3788 202.7294 15.27646363176080
1 44739U 19074AC  23018.44425816  .00080620  00000-0  29244-2 0  9995
2 44739  52.9687 280.7844 0001910 157.3788 202.7294 15.27646363176248
1 44739U 19074AC  23018.90221164  .00063154  00000-0  22954-2 0  9990
2 44739  52.9685 278.6557 0001922 159.2489 200.8586 15.27697713176153
1 44739U 19074AC  23019.09847257  .00066814  00000-0  24248-2 0  9992
2 44739  52.9684 277.7433 0001956 160.2959 199.8114 15.27720939176348
1 44739U 19074AC  23019.42556740  .00054731  00000-0  19898-2 0  9993
2 44739  52.9682 276.2239 0001892 160.2818 199.8252 15.27754257176238
1 44739U 19074AC  23019.75265754  .00064771  00000-0  23469-2 0  9995
2 44739  52.9679 274.7042 0001829 161.6537 198.4526 15.27788131176442
1 44739U 19074AC  23020.40681450  .00047810  00000-0  17368-2 0  9990
2 44739  52.9670 271.6630 0001897 165.7734 194.3317 15.27841231176388
1 44739U 19074AC  23020.40681450  .00047810  00000-0  17368-2 0  9990
2 44739  52.9670 271.6630 0001897 165.7734 194.3317 15.27841231176546
1 44739U 19074AC  23022.36915131  .00042453  00000-0  15374-2 0  9996
2 44739  52.9643 262.5388 0001912 176.4612 183.6399 15.27997845176844
1 44739U 19074AC  23022.89241170  .00032281  00000-0  11728-2 0  9996
2 44739  52.9648 260.1043 0001889 176.7753 183.3257 15.28021421176921
1 44739U 19074AC  23023.93890171  .00028748  00000-0  10445-2 0  9991
2 44739  52.9643 255.2387 0001937 180.1182 179.9815 15.28079005177081
1 44739U 19074AC  23024.91994916  .00027498  00000-0  99818-3 0  9995
2 44739  52.9642 250.6762 0001901 184.3122 175.7859 15.28133093177076
1 44739U 19074AC  23025.83556498  .00027080  00000-0  98191-3 0  9996
2 44739  52.9642 246.4170 0001851 188.6123 171.4843 15.28177525177214
1 44739U 19074AC  23025.83556498  .00027080  00000-0  98191-3 0  9996
2 44739  52.9642 246.4170 0001851 188.6123 171.4843 15.28177525177371
1 44739U 19074AC  23026.03176487  .00028303  00000-0  10252-2 0  9995
2 44739  52.9643 245.5038 0001792 188.9680 171.1285 15.28188012177246
1 44739U 19074AC  23026.88195067  .00026945  00000-0  97559-3 0  9999
2 44739  52.9644 241.5481 0001768 194.0041 166.0907 15.28228291177537
1 44739U 19074AC  23027.01274645  .00025587  00000-0  92709-3 0  9998
2 44739  52.9642 240.9396 0001739 195.7625 164.3319 15.28233598177395
1 44739U 19074AC  23027.86290566  .00023234  00000-0  84224-3 0  9991
2 44739  52.9644 236.9846 0001764 199.6551 160.4379 15.28273041177526
1 44739U 19074AC  23027.99369754  .00023568  00000-0  85397-3 0  9993
2 44739  52.9645 236.3762 0001749 200.7308 159.3619 15.28279174177702
1 44739U 19074AC  23028.58225454  .00020238  00000-0  73486-3 0  9994
2 44739  52.9644 233.6375 0001763 203.7870 156.3047 15.28304120177638
1 44739U 19074AC  23028.84383222  .00020511  00000-0  74431-3 0  9996
2 44739  52.9644 232.4211 0001742 204.8722 155.2192 15.28315384177676
1 44739U 19074AC  23029.69394689  .00019212  00000-0  69734-3 0  9995
2 44739  52.9645 228.4656 0001700 209.4252 150.6650 15.28350675177960
1 44739U 19074AC  23029.82473217  .00018619  00000-0  67619-3 0  9995
2 44739  52.9646 227.8573 0001660 210.3797 149.7105 15.28355093177820
1 44739U 19074AC  23029.95551696  .00018865  00000-0  68482-3 0  9999
2 44739  52.9645 227.2486 0001637 211.1832 148.9068 15.28360502177841
1 44739U 19074AC  23030.80560704  .00018001  00000-0  65345-3 0  9992
2 44739  52.9645 223.2932 0001569 216.3760 143.7131 15.28393426178132
1 44739U 19074AC  23031.78645589  .00021545  00000-0  77819-3 0  9991
2 44739  52.9648 218.7284 0001496 221.9170 138.1713 15.28437656178127
1 44739U 19074AC  23031.78645589  .00021545  00000-0  77819-3 0  9991
2 44739  52.9648 218.7284 0001496 221.9170 138.1713 15.28437656178284
